[{"OBJECT_NAME":"STARLINK-2586","OBJECT_ID":"2021-038AP","EPOCH":"2026-03-09T22:12:28.675296","MEAN_MOTION":15.30196494,"ECCENTRICITY":0.00016431,"INCLINATION":53.1631,"RA_OF_ASC_NODE":331.5574,"ARG_OF_PERICENTER":127.3896,"MEAN_ANOMALY":232.7255,"EPHEMERIS_TYPE":0,"CLASSIFICATION_TYPE":"U","NORAD_CAT_ID":48390,"ELEMENT_SET_NO":999,"REV_AT_EPOCH":26869,"BSTAR":-0.0001601936,"MEAN_MOTION_DOT":-5.1e-5,"MEAN_MOTION_DDOT":0},{"OBJECT_NAME":"PSLV R\/B","OBJECT_ID":"2020-081L","EPOCH":"2026-03-09T11:07:47.822880","MEAN_MOTION":15.35733047,"ECCENTRICITY":0.00238531,"INCLINATION":36.845,"RA_OF_ASC_NODE":143.8276,"ARG_OF_PERICENTER":144.7418,"MEAN_ANOMALY":215.4916,"EPHEMERIS_TYPE":0,"CLASSIFICATION_TYPE":"U","NORAD_CAT_ID":46915,"ELEMENT_SET_NO":999,"REV_AT_EPOCH":29573,"BSTAR":0.00039539958,"MEAN_MOTION_DOT":0.00014147,"MEAN_MOTION_DDOT":0}]
